ORBCOMM FM24            
1 25478U 98053D   25316.11800892  .00002010  00000+0  69749-3 0  9997
2 25478  45.0075 287.4906 0004074 275.5111  84.5273 14.38529697418749
ORBCOMM FM25            
1 25479U 98053E   25316.30073205  .00003706  00000+0  12468-2 0  9997
2 25479  45.0063 284.9170 0006431 278.2486  81.7633 14.38507903419067
ORBCOMM FM26            
1 25480U 98053F   25316.27294090  .00002420  00000+0  84729-3 0  9994
2 25480  45.0070 282.6033 0008312 289.0968  70.8979 14.37496611418956
ORBCOMM FM27            
1 25481U 98053G   25316.63231089  .00003081  00000+0  10441-2 0  9997
2 25481  45.0049 283.4894 0002848 292.4349  67.6197 14.38538859419045
ORBCOMM FM28            
1 25482U 98053H   25316.79146147  .00002691  00000+0  91490-3 0  9995
2 25482  45.0040 220.0432 0005825 329.9682  30.0832 14.38680786419751
ORBCOMM FM30            
1 25980U 99065A   25316.80188216  .00002129  00000+0  74879-3 0  9995
2 25980  45.0304 106.1007 0005682  41.0600 319.0676 14.37660544355835
ORBCOMM FM31            
1 25981U 99065B   25316.85149381  .00002158  00000+0  75969-3 0  9994
2 25981  45.0212  99.3232 0003519  76.9910 283.1331 14.37588678355392
ORBCOMM FM32            
1 25982U 99065C   25316.85717307  .00001805  00000+0  65530-3 0  9995
2 25982  45.0138 116.8704 0006028  63.9197 296.2271 14.36642551355972
